CZ-4B R/B               
1 28059U 03049C   16348.78886966  .00000028  00000-0  18679-4 0  9995
2 28059  98.5853 224.7395 0051304  92.5468 310.0059 14.52469776696766
CZ-2C R/B               
1 28222U 04012C   16348.53118610  .00000727  00000-0  48764-4 0  9999
2 28222  97.4998 302.8632 0050320 101.9338  32.6776 15.08922721692615
SL-16 R/B               
1 28353U 04021B   16348.75757515 -.00000299  00000-0 -13173-3 0  9992
2 28353  70.9993 107.3404 0003325 144.9300 215.2042 14.14183791645946
CZ-2C R/B               
1 28480U 04046B   16347.84069821 -.00000002  00000-0  14495-4 0  9995
2 28480  98.1946  90.0838 0143015  54.8250  53.3258 14.25619773627687
ARIANE 5 R/B            
1 28499U 04049H   16347.84166995  .00000071  00000-0  16134-4 0  9995
2 28499  98.0954  63.6498 0093880  97.1827  19.5511 14.79768270646433
CZ-2D R/B               
1 28738U 05024B   16348.71170093  .00000663  00000-0  43600-4 0  9991
2 28738  97.5210  23.0022 0010734 284.6792  75.3248 15.10898510627806
SUZAKU (ASTRO-EII)      
1 28773U 05025A   16348.46791023  .00001243  00000-0  59788-4 0  9994
2 28773  31.3837  60.3640 0004905 283.9886  76.0215 15.15359046629158
ALOS (DAICHI)           
1 28931U 06002A   16348.56868715  .00000318  00000-0  71823-4 0  9996
2 28931  97.8644  19.0222 0001557 125.7642 234.3705 14.62289331580336
H-2A R/B                
1 28932U 06002B   16348.82625541  .00000271  00000-0  31726-4 0  9990
2 28932  98.2072 258.2738 0089798 198.0501 203.0646 14.91176403590184
AKARI (ASTRO-F)         
1 28939U 06005A   16348.13062803  .00002368  00000-0  76791-4 0  9990
2 28939  98.2525 163.3284 0111162 110.7893 250.5295 15.27404607584700
RESURS-DK 1             
1 29228U 06021A   16348.84922127  .00000153  00000-0  19054-4 0  9991
2 29228  69.9347 209.5803 0007865 267.2542  92.7718 15.02059439580278
GENESIS 1               
1 29252U 06029A   16347.89229313  .00000460  00000-0  33779-4 0  9998
2 29252  64.5041 173.7944 0012833 227.6470 232.8799 15.16468392573585
CZ-4B R/B               
1 29507U 06046C   16348.49102665  .00000910  00000-0  76955-4 0  9990
2 29507  97.7872 349.8462 0042434 155.7375 204.5859 14.99939856553202
CZ-2C R/B               
1 31114U 07010B   16348.21801933  .00000019  00000-0  28141-4 0  9997
2 31114  98.4094 254.1877 0060514  36.2645 324.2611 14.19227199501147
COSMO-SKYMED 1          
1 31598U 07023A   16348.85760111 -.00000228  00000-0 -22111-4 0  9994
2 31598  97.8737 169.4163 0001294  90.0051 270.1325 14.82157141514992
GENESIS 2               
1 31789U 07028A   16348.55524258  .00000630  00000-0  42842-4 0  9996
2 31789  64.5033 208.9305 0046582 243.8517 115.7810 15.15729963520764
COSMOS 2428             
1 31792U 07029A   16348.84315514 -.00000232  00000-0 -99940-4 0  9997
2 31792  70.9194  81.2570 0009509 215.3460 144.7031 14.12274058487903
SL-16 R/B               
1 31793U 07029B   16348.51179000 -.00000263  00000-0 -11221-3 0  9999
2 31793  70.9770  59.1754 0002366 278.5327 173.2051 14.14374414488469
KORONAS-FOTON           
1 33504U 09003A   16348.73618623  .00000897  00000-0  46656-4 0  9990
2 33504  82.4440  57.2407 0020321  34.8942 325.3617 15.14616811433407
TIANGONG 1              
1 37820U 11053A   16348.82467941  .00020381  00000-0  16488-3 0  9997
2 37820  42.7624 247.5853 0017497 215.1792 219.1073 15.70198974298751
CZ-3B R/B               
1 38253U 12018D   16348.34357822  .00522583  12672-5  65251-3 0  9999
2 38253  54.9314 287.6050 2931861   9.5943 355.0212  9.77241211107210
H-2A R/B                
1 38341U 12025E   16348.35301450  .00000207  00000-0  32120-4 0  9993
2 38341  98.4574  48.7953 0056704  37.0042 323.5060 14.83471089247324
CUSAT 2 & FALCON 9 R/B  
1 39271U 13055G   16348.11908191  .00005689  00000-0  14791-3 0  9991
2 39271  80.9676 193.5409 0644734  31.6360 332.1933 14.34501422165921
ALOS-2                  
1 39766U 14029A   16348.80100159  .00000193  00000-0  32696-4 0  9996
2 39766  97.9217  82.7994 0001414  84.7651 275.3734 14.79473036138195
ASTRO-H (HITOMI)        
1 41337U 16012A   16347.91465089  .00000328  00000-0  20001-4 0  9991
2 41337  31.0049 219.0699 0012477   0.5166 359.5481 14.98208659 44962
